OBJECT_NAME,OBJECT_ID,EPOCH,MEAN_MOTION,ECCENTRICITY,INCLINATION,RA_OF_ASC_NODE,ARG_OF_PERICENTER,MEAN_ANOMALY,EPHEMERIS_TYPE,CLASSIFICATION_TYPE,NORAD_CAT_ID,ELEMENT_SET_NO,REV_AT_EPOCH,BSTAR,MEAN_MOTION_DOT,MEAN_MOTION_DDOT
SKYSAT-C1,2016-040C,2026-07-08T12:18:18.562176,15.36670064,.00009904,96.9561,220.0798,9.9370,350.1894,0,U,41601,999,56114,.17918598E-3,.6342E-4,0
LAPAN-A3,2016-040E,2026-07-08T14:21:57.719808,15.33250147,.00084505,97.1499,185.0431,304.9799,55.0650,0,U,41603,999,55809,.80680392E-4,.2519E-4,0
GAOFEN-3,2016-049A,2026-07-08T14:11:14.942688,14.42218031,.00017449,98.4019,197.0539,89.7849,270.3541,0,U,41727,999,52173,.2020151E-5,-.37E-6,0
SKYSAT-C4,2016-058B,2026-07-08T14:04:57.698688,15.49281714,.00032277,96.9171,210.4709,128.3677,231.7865,0,U,41771,999,54878,.23110327E-3,.12548E-3,0
SKYSAT-C5,2016-058C,2026-07-08T08:39:55.060416,15.34079952,.0001606,97.0444,229.0575,174.9809,185.1451,0,U,41772,999,54699,.15398905E-3,.5004E-4,0
SKYSAT-C2,2016-058D,2026-07-06T14:15:23.124960,15.42537650,.00025596,97.0163,208.9626,24.3070,335.8299,0,U,41773,999,54804,.24349585E-3,.10488E-3,0
SKYSAT-C3,2016-058E,2026-07-08T11:18:34.817184,15.53483680,.00020756,96.9002,219.5098,133.7065,226.4362,0,U,41774,999,54941,.26902928E-3,.16991E-3,0
ALSAT-1B,2016-059C,2026-07-08T13:56:01.535712,14.72291238,.00098369,97.7756,197.4212,149.0000,211.1791,0,U,41785,999,52372,.52897981E-4,.287E-5,0
PATHFINDER 1,2016-059E,2026-07-08T06:30:31.623840,14.67687697,.00294681,97.8172,187.5963,136.8828,223.4693,0,U,41787,999,52280,.85617549E-4,.444E-5,0
SCATSAT 1,2016-059H,2026-07-08T10:46:25.845600,14.79575929,.00547163,98.1180,253.4336,178.1339,182.0087,0,U,41790,999,10473,.13601629E-3,.987E-5,0
GOKTURK 1A,2016-073A,2026-07-08T14:06:15.137280,14.62789558,.00014247,98.1220,83.9237,79.2853,280.8509,0,U,41875,999,51195,.3598299E-5,-.28E-6,0
RESOURCESAT-2A,2016-074A,2026-07-08T12:53:53.253024,14.21609122,.00027495,98.7516,262.8672,42.1371,318.0017,0,U,41877,999,49733,.24554977E-3,.494E-5,0
CARTOSAT-2D,2017-008A,2026-07-08T13:32:27.985920,15.19253410,.00053436,97.4096,248.4698,158.3051,201.8411,0,U,41948,999,52082,.15012865E-3,.3097E-4,0
SENTINEL-2B,2017-013A,2026-07-08T12:52:04.622304,14.30815139,.00012035,98.5681,264.0094,89.8831,270.2490,0,U,42063,999,48769,.16796083E-3,.397E-5,0
CARTOSAT-2E,2017-036C,2026-07-08T12:23:01.481568,15.19220292,.00026027,97.4262,248.9663,217.9485,142.1567,0,U,42767,999,50138,.11536062E-3,.2361E-4,0
FORMOSAT-5,2017-049A,2026-07-08T12:00:37.006848,14.50906580,.00117943,98.2248,264.3362,24.0309,336.1434,0,U,42920,999,46976,.30860832E-4,.78E-6,0
SENTINEL-5P,2017-064A,2026-07-08T06:39:07.455168,14.19522517,.00010916,98.7928,131.2589,91.9520,268.1781,0,U,42969,999,45255,.31314302E-4,.22E-6,0
SKYSAT-C11,2017-068A,2026-07-08T08:59:33.703296,15.59044362,.00007367,97.4371,339.1482,162.3294,197.7988,0,U,42987,999,48654,.27282385E-3,.21166E-3,0
SKYSAT-C10,2017-068B,2026-07-08T08:25:11.396640,15.35021379,.00013164,97.4526,326.4123,108.5919,251.5467,0,U,42988,999,48560,.19569435E-3,.6567E-4,0
SKYSAT-C9,2017-068C,2026-07-08T07:57:35.918208,15.42095834,.00091405,97.4444,327.5320,66.6681,293.5527,0,U,42989,999,48601,.20008595E-3,.8479E-4,0
SKYSAT-C8,2017-068D,2026-07-08T08:30:52.102944,15.37398624,.0001202,97.4545,326.2978,97.7976,262.3405,0,U,42990,999,48556,.17395217E-3,.6293E-4,0
SKYSAT-C7,2017-068E,2026-07-07T23:00:14.949504,15.37344161,.00063695,97.4554,326.8865,44.7553,315.4204,0,U,42991,999,48556,.16604097E-3,.5995E-4,0
SKYSAT-C6,2017-068F,2026-07-08T08:15:50.458464,15.34088074,.00051061,97.4595,327.1616,106.6879,253.4924,0,U,42992,999,48556,.175018E-3,.5693E-4,0
CARTOSAT-2F,2018-004A,2026-07-08T13:10:00.138144,15.19237808,.00022265,97.4777,248.9736,147.5300,212.6072,0,U,43111,999,47057,.10546477E-3,.2153E-4,0
GAOFEN-1 02,2018-031A,2026-07-08T13:53:14.964288,14.76466124,.00018581,98.0512,252.0451,322.8512,37.2569,0,U,43259,999,44585,.50428152E-4,.299E-5,0
GAOFEN-1 03,2018-031B,2026-07-08T13:21:39.126240,14.76456327,.00029215,98.0507,251.8790,33.0888,327.0504,0,U,43260,999,44584,.76989228E-4,.484E-5,0
GAOFEN-1 04,2018-031D,2026-07-08T12:46:43.075200,14.76466113,.00015738,98.0514,252.0486,58.1078,302.0285,0,U,43262,999,44583,.11069658E-3,.719E-5,0
SENTINEL-3B,2018-039A,2026-07-08T10:32:13.711776,14.26740744,.00009905,98.6239,256.6655,119.7296,240.3983,0,U,43437,999,42715,.40925441E-4,.55E-6,0
GAOFEN-5 01,2018-043A,2026-07-08T08:48:04.343616,14.60620397,.00024621,98.4584,161.3993,45.5446,314.5954,0,U,43461,999,43478,.60509119E-4,.245E-5,0
GAOFEN-6,2018-048A,2026-07-08T13:18:37.903104,14.76380113,.00121015,98.0956,252.2411,100.2066,260.0509,0,U,43484,999,43654,.93536022E-4,.598E-5,0
