SKYSAT-C1               
1 41601U 16040C   26189.51271484  .00006342  00000+0  17919-3 0  9995
2 41601  96.9561 220.0798 0000990   9.9370 350.1894 15.36670064561149
LAPAN-A3                
1 41603U 16040E   26189.59858472  .00002519  00000+0  80680-4 0  9991
2 41603  97.1499 185.0431 0008450 304.9799  55.0650 15.33250147558094
GAOFEN-3                
1 41727U 16049A   26189.59114517 -.00000037  00000+0  20202-5 0  9991
2 41727  98.4019 197.0539 0001744  89.7849 270.3541 14.42218031521735
SKYSAT-C4               
1 41771U 16058B   26189.58677892  .00012548  00000+0  23110-3 0  9997
2 41771  96.9171 210.4709 0003227 128.3677 231.7865 15.49281714548782
SKYSAT-C5               
1 41772U 16058C   26189.36105394  .00005004  00000+0  15399-3 0  9996
2 41772  97.0444 229.0575 0001606 174.9809 185.1451 15.34079952546995
SKYSAT-C2               
1 41773U 16058D   26187.59401765  .00010488  00000+0  24350-3 0  9990
2 41773  97.0163 208.9626 0002559  24.3070 335.8299 15.42537650548048
SKYSAT-C3               
1 41774U 16058E   26189.47123631  .00016991  00000+0  26903-3 0  9994
2 41774  96.9002 219.5098 0002075 133.7065 226.4362 15.53483680549415
ALSAT-1B                
1 41785U 16059C   26189.58057333  .00000287  00000+0  52898-4 0  9998
2 41785  97.7756 197.4212 0009836 149.0000 211.1791 14.72291238523724
PATHFINDER 1            
1 41787U 16059E   26189.27119935  .00000444  00000+0  85618-4 0  9994
2 41787  97.8172 187.5963 0029468 136.8828 223.4693 14.67687697522804
SCATSAT 1               
1 41790U 16059H   26189.44891025  .00000987  00000+0  13602-3 0  9999
2 41790  98.1180 253.4336 0054716 178.1339 182.0087 14.79575929104730
GOKTURK 1A              
1 41875U 16073A   26189.58767520 -.00000028  00000+0  35983-5 0  9991
2 41875  98.1220  83.9237 0001424  79.2853 280.8509 14.62789558511954
RESOURCESAT-2A          
1 41877U 16074A   26189.53742191  .00000494  00000+0  24555-3 0  9993
2 41877  98.7516 262.8672 0002749  42.1371 318.0017 14.21609122497332
CARTOSAT-2D             
1 41948U 17008A   26189.56421280  .00003097  00000+0  15013-3 0  9997
2 41948  97.4096 248.4698 0005343 158.3051 201.8411 15.19253410520827
SENTINEL-2B             
1 42063U 17013A   26189.53616461  .00000397  00000+0  16796-3 0  9995
2 42063  98.5681 264.0094 0001203  89.8831 270.2490 14.30815139487695
CARTOSAT-2E             
1 42767U 17036C   26189.51598937  .00002361  00000+0  11536-3 0  9996
2 42767  97.4262 248.9663 0002602 217.9485 142.1567 15.19220292501388
FORMOSAT-5              
1 42920U 17049A   26189.50042832  .00000078  00000+0  30861-4 0  9994
2 42920  98.2248 264.3362 0011794  24.0309 336.1434 14.50906580469762
SENTINEL-5P             
1 42969U 17064A   26189.27716962  .00000022  00000+0  31314-4 0  9993
2 42969  98.7928 131.2589 0001091  91.9520 268.1781 14.19522517452552
SKYSAT-C11              
1 42987U 17068A   26189.37469564  .00021166  00000+0  27282-3 0  9991
2 42987  97.4371 339.1482 0000736 162.3294 197.7988 15.59044362486541
SKYSAT-C10              
1 42988U 17068B   26189.35082635  .00006567  00000+0  19569-3 0  9997
2 42988  97.4526 326.4123 0001316 108.5919 251.5467 15.35021379485600
SKYSAT-C9               
1 42989U 17068C   26189.33166572  .00008479  00000+0  20009-3 0  9994
2 42989  97.4444 327.5320 0009140  66.6681 293.5527 15.42095834486018
SKYSAT-C8               
1 42990U 17068D   26189.35476971  .00006293  00000+0  17395-3 0  9991
2 42990  97.4545 326.2978 0001202  97.7976 262.3405 15.37398624485565
SKYSAT-C7               
1 42991U 17068E   26188.95850636  .00005995  00000+0  16604-3 0  9991
2 42991  97.4554 326.8865 0006369  44.7553 315.4204 15.37344161485563
SKYSAT-C6               
1 42992U 17068F   26189.34433401  .00005693  00000+0  17502-3 0  9996
2 42992  97.4595 327.1616 0005106 106.6879 253.4924 15.34088074485569
CARTOSAT-2F             
1 43111U 18004A   26189.54861271  .00002153  00000+0  10546-3 0  9992
2 43111  97.4777 248.9736 0002226 147.5300 212.6072 15.19237808470571
GAOFEN-1 02             
1 43259U 18031A   26189.57864542  .00000299  00000+0  50428-4 0  9995
2 43259  98.0512 252.0451 0001858 322.8512  37.2569 14.76466124445853
GAOFEN-1 03             
1 43260U 18031B   26189.55670285  .00000484  00000+0  76989-4 0  9990
2 43260  98.0507 251.8790 0002921  33.0888 327.0504 14.76456327445843
GAOFEN-1 04             
1 43262U 18031D   26189.53244300  .00000719  00000+0  11070-3 0  9995
2 43262  98.0514 252.0486 0001573  58.1078 302.0285 14.76466113445831
SENTINEL-3B             
1 43437U 18039A   26189.43904759  .00000055  00000+0  40925-4 0  9992
2 43437  98.6239 256.6655 0000990 119.7296 240.3983 14.26740744427155
GAOFEN-5 01             
1 43461U 18043A   26189.36671694  .00000245  00000+0  60509-4 0  9996
2 43461  98.4584 161.3993 0002462  45.5446 314.5954 14.60620397434787
GAOFEN-6                
1 43484U 18048A   26189.55460536  .00000598  00000+0  93536-4 0  9995
2 43484  98.0956 252.2411 0012101 100.2066 260.0509 14.76380113436547
